{
    "links": {
        "self": "http://www.neowsapp.com/rest/v1/neo/3467062?api_key=iIulBulltgU6a56xZRHN4H3l9WmuAYTsLGpBGhQ2"
    },
    "id": "3467062",
    "neo_reference_id": "3467062",
    "name": "(2009 RR)",
    "designation": "2009 RR",
    "nasa_jpl_url": "http://ssd.jpl.nasa.gov/sbdb.cgi?sstr=3467062",
    "absolute_magnitude_h": 25.5,
    "estimated_diameter": {
        "kilometers": {
            "estimated_diameter_min": 0.0211132445,
            "estimated_diameter_max": 0.0472106499
        },
        "meters": {
            "estimated_diameter_min": 21.113244479,
            "estimated_diameter_max": 47.2106498806
        },
        "miles": {
            "estimated_diameter_min": 0.0131191578,
            "estimated_diameter_max": 0.0293353287
        },
        "feet": {
            "estimated_diameter_min": 69.2691770164,
            "estimated_diameter_max": 154.8905885541
        }
    },
    "is_potentially_hazardous_asteroid": false,
    "close_approach_data": [
        {
            "close_approach_date": "1942-02-28",
            "close_approach_date_full": "1942-Feb-28 03:22",
            "epoch_date_close_approach": -878589480000,
            "relative_velocity": {
                "kilometers_per_second": "18.4641063402",
                "kilometers_per_hour": "66470.7828246264",
                "miles_per_hour": "41302.3594723352"
            },
            "miss_distance": {
                "astronomical": "0.1926042368",
                "lunar": "74.9230481152",
                "kilometers": "28813183.578255616",
                "miles": "17903682.0707588608"
            },
            "orbiting_body": "Earth"
        },
        {
            "close_approach_date": "2009-09-16",
            "close_approach_date_full": "2009-Sep-16 07:57",
            "epoch_date_close_approach": 1253087820000,
            "relative_velocity": {
                "kilometers_per_second": "12.7948242437",
                "kilometers_per_hour": "46061.3672772836",
                "miles_per_hour": "28620.7423507099"
            },
            "miss_distance": {
                "astronomical": "0.0072081546",
                "lunar": "2.8039721394",
                "kilometers": "1078324.574790702",
                "miles": "670039.8206156076"
            },
            "orbiting_body": "Earth"
        },
        {
            "close_approach_date": "2009-09-16",
            "close_approach_date_full": "2009-Sep-16 17:11",
            "epoch_date_close_approach": 1253121060000,
            "relative_velocity": {
                "kilometers_per_second": "12.4321586944",
                "kilometers_per_hour": "44755.7712999329",
                "miles_per_hour": "27809.4957835611"
            },
            "miss_distance": {
                "astronomical": "0.0079413777",
                "lunar": "3.0891959253",
                "kilometers": "1188013.188785499",
                "miles": "738197.1648539262"
            },
            "orbiting_body": "Moon"
        }
    ],
    "orbital_data": {
        "orbit_id": "10",
        "orbit_determination_date": "2017-04-06 09:00:07",
        "first_observation_date": "2009-09-11",
        "last_observation_date": "2009-09-15",
        "data_arc_in_days": 4,
        "observations_used": 35,
        "orbit_uncertainty": "8",
        "minimum_orbit_intersection": ".00257359",
        "jupiter_tisserand_invariant": "4.631",
        "epoch_osculation": "2455087.5",
        "eccentricity": ".4645045190280622",
        "semi_major_axis": "1.399647947862117",
        "inclination": "6.073093869046062",
        "ascending_node_longitude": "174.2969908305091",
        "orbital_period": "604.8206971869462",
        "perihelion_distance": ".74950515103181",
        "perihelion_argument": "257.1883523039858",
        "aphelion_distance": "2.049790744692424",
        "perihelion_time": "2455143.580837766014",
        "mean_anomaly": "326.6196912743468",
        "mean_motion": ".5952177259713161",
        "equinox": "J2000",
        "orbit_class": {
            "orbit_class_type": "APO",
            "orbit_class_description": "Near-Earth asteroid orbits which cross the Earth’s orbit similar to that of 1862 Apollo",
            "orbit_class_range": "a (semi-major axis) > 1.0 AU; q (perihelion) < 1.017 AU"
        }
    },
    "is_sentry_object": false
}